COSMOS 1933             
1 18958U 88020A   26061.60477954  .00005011  00000+0  24571-3 0  9994
2 18958  82.5096 257.9238 0003315 208.9472 151.1579 15.17907098 49158
SL-3 R/B                
1 19046U 88032B   26061.75377651  .00007082  00000+0  33134-3 0  9990
2 19046  97.5176  45.0297 0024088 257.5714 102.2825 15.19808478 51059
SL-16 R/B               
1 19120U 88039B   26061.51126500  .00000144  00000+0  90974-4 0  9997
2 19120  71.0128  83.7279 0022354 344.9642  15.0816 14.19615352957366
COSMOS 1953             
1 19210U 88050A   26061.75150916  .00010680  00000+0  38458-3 0  9998
2 19210  82.5116 165.2225 0012172 145.0303 215.1738 15.28371852 36727
SL-8 R/B                
1 19257U 88053B   26061.65410887  .00000304  00000+0  10705-3 0  9994
2 19257  74.0469 125.4351 0021257 305.7809 216.9762 14.38910760975582
COSMOS 1975             
1 19573U 88093A   26061.65223788  .00009226  00000+0  33661-3 0  9999
2 19573  82.5201 124.7490 0011484 187.6591 172.4475 15.27939863 18335
SL-14 R/B               
1 19574U 88093B   26061.46664484  .00000720  00000+0  79988-4 0  9994
2 19574  82.5290  48.8250 0022171  64.0529  56.3050 14.85645946999963
SL-16 R/B               
1 19650U 88102B   26061.70015642 -.00000094  00000+0 -23193-4 0  9996
2 19650  71.0000 166.2026 0013519  12.2660 347.8790 14.16149362925900
INTERCOSMOS 24          
1 20261U 89080A   26061.57452880  .00000780  00000+0  23149-3 0  9996
2 20261  82.6033 109.0376 1186853 309.3514  40.8085 12.59544974665909
SL-14 R/B               
1 20262U 89080C   26061.75412985  .00000744  00000+0  22146-3 0  9995
2 20262  82.5971 177.6372 1230299 200.5981 154.1094 12.50483090659286
DELTA 1 R/B             
1 20323U 89089B   26061.58525407  .00000451  00000+0  11989-3 0  9995
2 20323  97.0711 270.1538 0070022 144.0950 216.4983 14.50656335894706
ARIANE 40 R/B           
1 20443U 90005H   26061.72542534  .00000321  00000+0  11570-3 0  9996
2 20443  98.3099 122.5940 0009427 220.2494 139.7998 14.39864935891805
